satname,norad_id,inclination_deg,eccentricity,mean_motion_rev_per_day,perigee_km,apogee_km,l1,l2
STARLINK-1316,45415,53.1557,0.0004762,15.39648137,443.8987951728823,450.39919755582105,1 45415U 20019BH  26167.84972024  .00048578  00000+0  12153-2 0  9994,2 45415  53.1557  25.4477 0004762 111.6361 248.5151 15.39648137345223
STARLINK-1286,45417,53.0455,0.0001901,15.65097523,371.67491605354826,374.2416824863294,1 45417U 20019BK  26167.74480481  .00046865  00000+0  46940-3 0  9995,2 45417  53.0455  10.6912 0001901 264.0990  95.9808 15.65097523345650
STARLINK-1308,45419,53.0462,0.0006851,15.66679343,363.7912465944901,373.0353698268009,1 45419U 20019BM  26167.88964924  .00042721  00000+0  40196-3 0  9995,2 45419  53.0462  29.2782 0006851  74.1939 285.9831 15.66679343345152
STARLINK-1329,45531,53.0426,0.0001344,15.74499116,345.1531512001693,346.9606145158823,1 45531U 20025A   26167.70995015  .00062584  00000+0  42270-3 0  9997,2 45531  53.0426 313.3801 0001344 219.4266 140.6655 15.74499116340989
STARLINK-1338,45532,53.0453,0.0001618,15.68791868,361.26476238405485,363.4459857162974,1 45532U 20025B   26167.70262230  .00045751  00000+0  39499-3 0  9990,2 45532  53.0453 320.4229 0001618 109.6690 250.4501 15.68791868340889
STARLINK-1350,45535,53.0733,0.0001137,15.38422491,449.9971600022327,451.5500542742957,1 45535U 20025E   26167.60845608  .00009881  00000+0  26681-3 0  9991,2 45535  53.0733 287.7307 0001137  73.4095 286.7033 15.38422491341375
STARLINK-1362,45538,53.1554,0.0003123,15.38160949,449.4147795938361,453.68060065128793,1 45538U 20025H   26167.70515161  .00027312  00000+0  72385-3 0  9994,2 45538  53.1554 358.5873 0003123 214.7076 145.3724 15.38160949340374
STARLINK-1368,45540,53.1583,0.0002955,15.38287752,449.15430436532824,453.1904262002108,1 45540U 20025K   26167.84774081  .00046443  00000+0  12156-2 0  9995,2 45540  53.1583 358.2766 0002955 175.5914 184.5117 15.38287752340388
STARLINK-1371,45542,53.0445,0.0002771,15.63967384,374.3385522745539,378.0818114827507,1 45542U 20025M   26167.70395432  .00096060  00000+0  99404-3 0  9993,2 45542  53.0445 330.4379 0002771 204.9890 155.0990 15.63967384340740
STARLINK-1372,45543,53.1575,0.0002138,15.38778919,448.25924853546076,451.1788397799437,1 45543U 20025N   26167.73854319  .00047088  00000+0  12128-2 0  9994,2 45543  53.1575 358.2568 0002138 163.3539 196.7536 15.38778919339471
STARLINK-1373,45544,53.0468,0.0001903,15.70819494,355.2720605570039,357.83528382684017,1 45544U 20025P   26167.71009696  .00046100  00000+0  36596-3 0  9993,2 45544  53.0468 325.5015 0001903  66.2808 293.8408 15.70819494340812
STARLINK-1327,45555,53.0415,0.0003108,15.68098274,362.2472804947556,366.43840596530754,1 45555U 20025AA  26167.63985859  .00043179  00000+0  38385-3 0  9991,2 45555  53.0415 303.1763 0003108  80.9591 279.1776 15.68098274341110
STARLINK-1356,45564,53.0437,0.0001444,15.65929619,369.5919986916988,371.5410242658136,1 45564U 20025AK  26167.67343683  .00039133  00000+0  38042-3 0  9993,2 45564  53.0437 316.3054 0001444 340.0091  20.0867 15.65929619340935
STARLINK-1357,45565,53.0453,0.0003269,15.70509224,355.2387868801725,359.6425075459201,1 45565U 20025AL  26167.55394968  .00048574  00000+0  39019-3 0  9997,2 45565  53.0453 273.3424 0003269 135.5199 224.6080 15.70509224341538
STARLINK-1361,45567,53.0429,0.000394,15.64432287,372.2113019269682,377.53267300909374,1 45567U 20025AN  26167.87222527  .00104232  00000+0  10573-2 0  9992,2 45567  53.0429 313.7581 0003940 309.3232  50.7432 15.64432287340996
STARLINK-1376,45570,53.1586,0.0002371,15.39147232,447.011118268917,450.2483710592369,1 45570U 20025AR  26167.71344586  .00049285  00000+0  12534-2 0  9994,2 45570  53.1586 334.7547 0002371 144.4578 215.6585 15.39147232340703
STARLINK-1320,45572,53.0381,0.0009565,15.89566042,297.10767451086303,309.88964352656603,1 45572U 20025AT  26167.91668980  .00180352  22841-4  60980-3 0  9997,2 45572  53.0381 209.3463 0009565   6.2276 253.3170 15.89566042  6014
STARLINK-1321,45573,53.0428,0.000131,15.64896236,372.65273035139853,374.421668991713,1 45573U 20025AU  26167.55709198  .00036762  00000+0  37280-3 0  9995,2 45573  53.0428 299.1408 0001310 267.4113  92.6752 15.64896236340862
STARLINK-1331,45578,53.046,3.41e-05,15.64750496,373.72617825755606,374.18667102911604,1 45578U 20025AZ  26167.83741281  .00039508  00000+0  40242-3 0  9993,2 45578  53.0460 304.6882 0000341 108.9782 251.1270 15.64750496341129
STARLINK-1333,45580,53.1575,9.76e-05,15.36093673,457.0067378461108,458.341088136327,1 45580U 20025BB  26167.71338037  .00050069  00000+0  14052-2 0  9998,2 45580  53.1575 336.4562 0000976 200.1426 159.9539 15.36093673340681
STARLINK-1335,45581,53.1567,0.0002963,15.37814695,450.5488924787278,454.59677112505415,1 45581U 20025BC  26167.73328830  .00050186  00000+0  13324-2 0  9992,2 45581  53.1567 332.9766 0002963 171.0258 189.0799 15.37814695340720
STARLINK-1337,45582,53.045,0.0002535,15.75842732,340.53054429849817,343.93777247579965,1 45582U 20025BD  26167.82645692  .00076739  00000+0  48713-3 0  9994,2 45582  53.0450 293.3765 0002535 110.7255 249.4036 15.75842732341262
STARLINK-1347,45586,53.0385,4.68e-05,15.69573918,359.800842899841,360.43154339872035,1 45586U 20025BH  26167.53249596  .00047274  00000+0  39500-3 0  9995,2 45586  53.0385 265.7051 0000468  92.9648 267.1422 15.69573918341620
STARLINK-1364,45589,53.0427,0.0001517,15.70344049,356.89109662560986,358.9348141820792,1 45589U 20025BL  26167.66322491  .00050464  00000+0  40795-3 0  9991,2 45589  53.0427 301.7110 0001517 334.2460  25.8481 15.70344049341130
STARLINK-1365,45590,53.0459,0.0001649,15.60611829,384.7732499544836,387.00402560982366,1 45590U 20025BM  26167.71422726  .00049917  00000+0  59481-3 0  9994,2 45590  53.0459 336.2506 0001649 143.6749 216.4375 15.60611829340677
STARLINK-1443,45660,53.1331,0.0001524,15.33341377,464.8084771363765,466.8945248314758,1 45660U 20035D   26167.72518032  .00043322  00000+0  13296-2 0  9997,2 45660  53.1331 325.2680 0001524  93.8863 266.2313 15.33341377333913
STARLINK-1446,45663,53.0213,0.0001378,15.48194755,421.0700030047319,422.94412270845623,1 45663U 20035G   26167.50476551  .00027847  00000+0  52698-3 0  9999,2 45663  53.0213 248.2568 0001378 261.2927  98.7924 15.48194755334955
STARLINK-1448,45665,53.0438,0.0003325,15.69333332,358.56414747746294,363.04554380481386,1 45665U 20035J   26167.82430944  .00054405  00000+0  45790-3 0  9997,2 45665  53.0438 288.3475 0003325 104.6365 255.5020 15.69333332334418
STARLINK-1451,45668,53.0557,0.00243,15.12307887,512.3789658910482,545.9484473251641,1 45668U 20035M   26167.73808705 -.01949501  00000+0 -12183+0 0  9993,2 45668  53.0557 337.2395 0024300  49.5448 310.7657 15.12307887333731
STARLINK-1452,45669,53.0247,0.0005987,15.60578602,381.9349684739509,390.03432773539134,1 45669U 20035N   26167.56528922  .00093873  00000+0  11078-2 0  9999,2 45669  53.0247 265.3014 0005987 340.4266  19.6515 15.60578602334724
STARLINK-1453,45670,53.0387,0.0002573,15.70071488,356.95912237826724,360.42589484339805,1 45670U 20035P   26167.72468225  .00054575  00000+0  44555-3 0  9991,2 45670  53.0387 249.0828 0002573 342.6089  17.4839 15.70071488334858
STARLINK-1454,45671,53.0434,0.0002675,15.67682403,363.73127737413324,367.33914200631807,1 45671U 20035Q   26167.64673718  .00046582  00000+0  42061-3 0  9997,2 45671  53.0434 290.5534 0002675  32.2900 327.8278 15.67682403334366
STARLINK-1456,45673,53.0424,0.000239,15.66474299,367.3894566049894,370.6145890579037,1 45673U 20035S   26167.55703788  .00042369  00000+0  40238-3 0  9993,2 45673  53.0424 285.6468 0002390 197.0261 163.0674 15.66474299334442
STARLINK-1458,45675,53.0462,0.0001874,15.58737873,390.040218597087,392.5774068877017,1 45675U 20035U   26167.56202772  .00081052  00000+0  10290-2 0  9999,2 45675  53.0462 300.7450 0001874 355.6811   4.4184 15.58737873334192
STARLINK-1460,45676,53.1577,0.0002194,15.35936961,456.6389990593825,459.63875691464364,1 45676U 20035V   26167.75507509  .00051172  00000+0  14429-2 0  9995,2 45676  53.1577 323.4598 0002194 227.2097 132.8722 15.35936961333908
STARLINK-1392,45677,53.1531,0.0002157,15.39339636,446.5884644818907,449.5332862453233,1 45677U 20035W   26167.68886073  .00090056  00000+0  22554-2 0  9996,2 45677  53.1531 322.1949 0002157 262.3162  97.7598 15.39339636333952
STARLINK-1394,45679,53.0405,0.0002789,15.66097284,368.20275030104403,371.9669084374673,1 45679U 20035Y   26167.56203655  .00038506  00000+0  37190-3 0  9999,2 45679  53.0405 275.9267 0002789 214.6905 145.3928 15.66097284334573
STARLINK-1402,45685,53.0414,0.0003684,15.59188033,387.512408683413,392.4991762929176,1 45685U 20035AE  26167.54541243  .00080501  00000+0  10047-2 0  9995,2 45685  53.0414 267.2919 0003684 251.2680 108.7932 15.59188033334708
STARLINK-1404,45686,53.1579,0.0002965,15.45750969,427.1540245269225,431.1907589962366,1 45686U 20035AF  26167.64612950  .00060480  00000+0  12296-2 0  9993,2 45686  53.1579 303.6426 0002965 249.4469 110.6220 15.45750969334211
STARLINK-1413,45689,53.1584,0.0001904,15.35867711,457.042702092147,459.64603419713694,1 45689U 20035AJ  26167.66417252  .00045538  00000+0  12891-2 0  9994,2 45689  53.1584 308.5366 0001904 271.5681  88.5104 15.35867711334061
STARLINK-1417,45693,53.0499,0.0003618,15.17281358,511.56763466451775,516.5548293051825,1 45693U 20035AN  26167.75547081 -.00008569  00000+0 -40980-3 0  9999,2 45693  53.0499 323.6548 0003618 166.0541 194.0553 15.17281358333918
STARLINK-1420,45695,53.0452,0.0001795,15.69180208,360.033520109655,362.4529576154073,1 45695U 20035AQ  26167.49557383  .00045858  00000+0  38964-3 0  9997,2 45695  53.0452 259.2475 0001795 136.4274 223.6884 15.69180208334804
STARLINK-1422,45696,53.1577,0.0001658,15.35859743,457.23452058351995,459.50150564586784,1 45696U 20035AR  26167.66756025  .00040830  00000+0  11579-2 0  9998,2 45696  53.1577 308.4739 0001658 248.9760 111.1066 15.35859743334141
